[{"OBJECT_NAME":"TIANQI-6","OBJECT_ID":"2020-076D","EPOCH":"2026-03-09T22:50:24.728640","MEAN_MOTION":15.06417552,"ECCENTRICITY":0.00106023,"INCLINATION":34.9994,"RA_OF_ASC_NODE":297.1791,"ARG_OF_PERICENTER":9.4595,"MEAN_ANOMALY":350.6312,"EPHEMERIS_TYPE":0,"CLASSIFICATION_TYPE":"U","NORAD_CAT_ID":46810,"ELEMENT_SET_NO":999,"REV_AT_EPOCH":29360,"BSTAR":0.00037023286,"MEAN_MOTION_DOT":5.552e-5,"MEAN_MOTION_DDOT":0},{"OBJECT_NAME":"STARLINK-4175","OBJECT_ID":"2022-086AT","EPOCH":"2026-03-09T14:29:30.783264","MEAN_MOTION":15.08837362,"ECCENTRICITY":0.0001378,"INCLINATION":53.2177,"RA_OF_ASC_NODE":184.5079,"ARG_OF_PERICENTER":94.9774,"MEAN_ANOMALY":265.1375,"EPHEMERIS_TYPE":0,"CLASSIFICATION_TYPE":"U","NORAD_CAT_ID":53283,"ELEMENT_SET_NO":999,"REV_AT_EPOCH":20118,"BSTAR":-1.0064e-5,"MEAN_MOTION_DOT":-4.48e-6,"MEAN_MOTION_DDOT":0}]
